STARLINK-1621_new
1 16127C 20057L   21326.08094593  .00003498  00000-0  23434-3 0  3263
2 16127  53.0512 138.3823 0001858  79.1846 302.2503 15.06397788    13
STARLINK-1621_old
1 26127C 20057L   21325.07172620  .00003157  00000-0  21152-3 0  3255
2 26127  53.0508 142.9131 0001833  79.0657 226.3101 15.06394327    19
